     2.10           N:  GPS NAV DATA                        RINEX VERSION / TYPE
TPS2RIN 1.20        RUN BY              26-MAY-08 09:57     PGM / RUN BY / DATE
build May 16, 2002 (c) Topcon Positioning Systems           COMMENT
     .6519D-08   .2235D-07  -.5960D-07  -.1192D-06          ION ALPHA
     .8602D+05   .9830D+05  -.6554D+05  -.5243D+06          ION BETA
     .279396772385D-08  .710542735760D-14   503808     1480 DELTA-UTC: A0,A1,T,W
    14                                                      LEAP SECONDS
                                                            END OF HEADER       
10 08  5 22  1 59 44.0 -.167591497302D-05 -.227373675443D-12  .000000000000D+00
     .680000000000D+02  .115875000000D+03  .420303221602D-08  .163844965802D+01
     .602565705776D-05  .801239570137D-02  .537186861038D-05  .515364394379D+04
     .352784000000D+06 -.102445483208D-06  .103424046285D+01  .298023223877D-07
     .963803928519D+00  .279468750000D+03  .558432431604D+00 -.803426323074D-08
     .111076055335D-09  .100000000000D+01  .148000000000D+04  .000000000000D+00
     .200000000000D+01  .000000000000D+00 -.232830643654D-08  .680000000000D+02
     .352799000000D+06                                                          
 2 08  5 22  2  0  0.0  .204479321837D-03  .204636307899D-11  .000000000000D+00
     .700000000000D+02  .316250000000D+02  .470805325217D-08  .859171799657D+00
     .145658850670D-05  .880567019340D-02  .938028097153D-05  .515373151779D+04
     .352800000000D+06  .217929482460D-06 -.470227835563D-01 -.502914190292D-07
     .943892617213D+00  .188750000000D+03  .255778445083D+01 -.801676250177D-08
    -.550022910662D-09  .100000000000D+01  .148000000000D+04  .000000000000D+00
     .200000000000D+01  .000000000000D+00 -.172294676304D-07  .700000000000D+02
     .352799000000D+06                                                          
 4 08  5 22  2  0  0.0 -.727339647710D-04 -.864019966684D-11  .000000000000D+00
     .660000000000D+02  .367500000000D+02  .459304846176D-08 -.274612788576D+01
     .185519456863D-05  .807084387634D-02  .999681651592D-05  .515378110695D+04
     .352800000000D+06 -.391155481339D-07 -.281672178034D-01 -.577419996262D-07
     .943205923467D+00  .177062500000D+03  .375498463967D+00 -.782425448303D-08
    -.477877048354D-09  .100000000000D+01  .148000000000D+04  .000000000000D+00
     .200000000000D+01  .000000000000D+00 -.605359673500D-08  .660000000000D+02
     .352799000000D+06                                                          
 8 08  5 22  2  0  0.0 -.154028180987D-03 -.170530256582D-11  .000000000000D+00
     .860000000000D+02 -.107875000000D+03  .384980321690D-08 -.165757926782D+01
    -.588968396187D-05  .101564446231D-01  .892207026482D-05  .515361792564D+04
     .352800000000D+06 -.558793544769D-07 -.312653825371D+01 -.199303030968D-06
     .983802944690D+00  .223281250000D+03  .288029695531D+01 -.764674708914D-08
     .208937274505D-09  .100000000000D+01  .148000000000D+04  .000000000000D+00
     .400000000000D+01  .000000000000D+00 -.372529029846D-08  .860000000000D+02
     .352799000000D+06                                                          
15 08  5 22  2  0  0.0 -.114609487355D-03 -.568434188608D-11  .000000000000D+00
     .530000000000D+02 -.359687500000D+02  .469340978507D-08  .203015490485D+01
    -.182911753654D-05  .634943484329D-03  .463798642159D-06  .515365733337D+04
     .352800000000D+06  .391155481339D-07  .204520892584D+01 -.186264514923D-07
     .957409826659D+00  .369656250000D+03 -.127860632661D+01 -.836141971526D-08
     .303584074067D-10  .100000000000D+01  .148000000000D+04  .000000000000D+00
     .200000000000D+01  .000000000000D+00 -.977888703346D-08  .530000000000D+02
     .352799000000D+06                                                          
18 08  5 22  2  0  0.0 -.175604131073D-03  .386535248253D-11  .000000000000D+00
     .430000000000D+02  .136937500000D+03  .437911097898D-08  .309863497559D+01
     .706501305103D-05  .926559034269D-02  .502914190292D-05  .515369300842D+04
     .352800000000D+06  .279396772385D-07  .104525569178D+01 -.800937414169D-07
     .947892631693D+00  .277125000000D+03 -.251217522358D+01 -.796354599937D-08
     .298941023522D-09  .100000000000D+01  .148000000000D+04  .000000000000D+00
     .200000000000D+01  .000000000000D+00 -.107102096081D-07  .430000000000D+02
     .352799000000D+06                                                          
21 08  5 22  2  0  0.0  .636149197817D-04 -.113686837722D-11  .000000000000D+00
     .910000000000D+02  .406562500000D+02  .464447917549D-08 -.199049938552D+01
     .191107392311D-05  .139090510784D-01  .987574458122D-05  .515372067451D+04
     .352800000000D+06  .447034835815D-07 -.125938316465D-01 -.188127160072D-06
     .936740031828D+00  .176625000000D+03 -.272641443120D+01 -.776853787650D-08
    -.353586156854D-09  .100000000000D+01  .148000000000D+04  .000000000000D+00
     .200000000000D+01  .000000000000D+00 -.116415321827D-07  .910000000000D+02
     .352799000000D+06                                                          
24 08  5 22  2  0  0.0  .956952571869D-04  .295585778076D-11  .000000000000D+00
     .130000000000D+02  .503437500000D+02  .422910473062D-08  .290003709350D+01
     .259652733803D-05  .773002498318D-02  .102687627077D-04  .515367473221D+04
     .352800000000D+06  .167638063431D-07  .132548936052D-01  .316649675369D-07
     .953407657302D+00  .180687500000D+03 -.727608757745D+00 -.754781439677D-08
    -.571095216980D-09  .100000000000D+01  .148000000000D+04  .000000000000D+00
     .200000000000D+01  .000000000000D+00 -.139698386192D-08  .130000000000D+02
     .352799000000D+06                                                          
26 08  5 22  2  0  0.0  .258231069893D-03  .784439180279D-11  .000000000000D+00
     .540000000000D+02 -.364375000000D+02  .398695178683D-08 -.252279140210D-01
    -.183656811714D-05  .191758585861D-01  .163912773132D-05  .515360315132D+04
     .352800000000D+06 -.204890966415D-07  .210209197913D+01  .266358256340D-06
     .993226855222D+00  .369031250000D+03  .931985388612D+00 -.829641700764D-08
     .678599694973D-11  .100000000000D+01  .148000000000D+04  .000000000000D+00
     .200000000000D+01  .000000000000D+00 -.605359673500D-08  .540000000000D+02
     .352799000000D+06                                                          
29 08  5 22  2  0  0.0 -.430569052696D-04  .113686837722D-12  .000000000000D+00
     .140000000000D+02 -.790625000000D+01  .484948771491D-08 -.191947725240D+01
    -.536441802979D-06  .376149953809D-02  .548735260963D-05  .515365679169D+04
     .352800000000D+06  .130385160446D-07 -.106481081033D+01  .109896063805D-06
     .959330600062D+00  .271812500000D+03 -.141197489031D+01 -.796533178804D-08
    -.350371737246D-09  .100000000000D+01  .148000000000D+04  .000000000000D+00
     .200000000000D+01  .000000000000D+00 -.884756445885D-08  .140000000000D+02
     .352799000000D+06                                                          
